[{"OBJECT_NAME":"STARLINK-30288","OBJECT_ID":"2023-129A","EPOCH":"2026-03-09T22:00:01.999584","MEAN_MOTION":15.26621328,"ECCENTRICITY":0.00022721,"INCLINATION":43.0005,"RA_OF_ASC_NODE":116.9908,"ARG_OF_PERICENTER":287.9992,"MEAN_ANOMALY":44.6307,"EPHEMERIS_TYPE":0,"CLASSIFICATION_TYPE":"U","NORAD_CAT_ID":57698,"ELEMENT_SET_NO":999,"REV_AT_EPOCH":577,"BSTAR":0.036932194,"MEAN_MOTION_DOT":0.01064617,"MEAN_MOTION_DDOT":0},{"OBJECT_NAME":"TAURUS R\/B","OBJECT_ID":"2000-014B","EPOCH":"2026-03-09T17:34:52.155840","MEAN_MOTION":15.39389421,"ECCENTRICITY":0.00149672,"INCLINATION":97.4179,"RA_OF_ASC_NODE":3.0855,"ARG_OF_PERICENTER":325.8693,"MEAN_ANOMALY":34.1589,"EPHEMERIS_TYPE":0,"CLASSIFICATION_TYPE":"U","NORAD_CAT_ID":26103,"ELEMENT_SET_NO":999,"REV_AT_EPOCH":43012,"BSTAR":0.00036037476,"MEAN_MOTION_DOT":0.0001407,"MEAN_MOTION_DDOT":0}]
